[{"OBJECT_NAME":"STARLINK-5655","OBJECT_ID":"2023-013F","EPOCH":"2026-01-21T17:46:39.357120","MEAN_MOTION":15.02528149,"ECCENTRICITY":0.00011281,"INCLINATION":43.002,"RA_OF_ASC_NODE":182.6334,"ARG_OF_PERICENTER":274.4648,"MEAN_ANOMALY":85.6065,"EPHEMERIS_TYPE":0,"CLASSIFICATION_TYPE":"U","NORAD_CAT_ID":55336,"ELEMENT_SET_NO":999,"REV_AT_EPOCH":16479,"BSTAR":-5.5222084e-5,"MEAN_MOTION_DOT":-9.49e-6,"MEAN_MOTION_DDOT":0},{"OBJECT_NAME":"STARLINK-5667","OBJECT_ID":"2023-013G","EPOCH":"2026-01-21T17:17:53.194848","MEAN_MOTION":15.02524097,"ECCENTRICITY":0.00012519,"INCLINATION":43.0018,"RA_OF_ASC_NODE":182.5319,"ARG_OF_PERICENTER":266.2846,"MEAN_ANOMALY":93.7853,"EPHEMERIS_TYPE":0,"CLASSIFICATION_TYPE":"U","NORAD_CAT_ID":55337,"ELEMENT_SET_NO":999,"REV_AT_EPOCH":16479,"BSTAR":-0.00020750588,"MEAN_MOTION_DOT":-3.005e-5,"MEAN_MOTION_DDOT":0},{"OBJECT_NAME":"STARLINK-5658","OBJECT_ID":"2023-013H","EPOCH":"2026-01-21T17:43:06.857184","MEAN_MOTION":15.02514363,"ECCENTRICITY":0.00028606,"INCLINATION":43.008,"RA_OF_ASC_NODE":195.7163,"ARG_OF_PERICENTER":266.433,"MEAN_ANOMALY":93.6186,"EPHEMERIS_TYPE":0,"CLASSIFICATION_TYPE":"U","NORAD_CAT_ID":55338,"ELEMENT_SET_NO":999,"REV_AT_EPOCH":16464,"BSTAR":-6.4979288e-5,"MEAN_MOTION_DOT":-1.081e-5,"MEAN_MOTION_DDOT":0},{"OBJECT_NAME":"STARLINK-5671","OBJECT_ID":"2023-013J","EPOCH":"2026-01-22T04:45:12.619872","MEAN_MOTION":15.02533194,"ECCENTRICITY":0.00012469,"INCLINATION":43.0014,"RA_OF_ASC_NODE":193.1474,"ARG_OF_PERICENTER":266.2702,"MEAN_ANOMALY":93.7998,"EPHEMERIS_TYPE":0,"CLASSIFICATION_TYPE":"U","NORAD_CAT_ID":55339,"ELEMENT_SET_NO":999,"REV_AT_EPOCH":16471,"BSTAR":3.540112e-6,"MEAN_MOTION_DOT":-1.56e-6,"MEAN_MOTION_DDOT":0},{"OBJECT_NAME":"STARLINK-5675","OBJECT_ID":"2023-013K","EPOCH":"2026-01-22T04:27:38.714400","MEAN_MOTION":15.02518205,"ECCENTRICITY":0.00010598,"INCLINATION":43.0018,"RA_OF_ASC_NODE":193.06,"ARG_OF_PERICENTER":259.3681,"MEAN_ANOMALY":100.7042,"EPHEMERIS_TYPE":0,"CLASSIFICATION_TYPE":"U","NORAD_CAT_ID":55340,"ELEMENT_SET_NO":999,"REV_AT_EPOCH":16471,"BSTAR":-0.00016654644,"MEAN_MOTION_DOT":-2.451e-5,"MEAN_MOTION_DDOT":0},{"OBJECT_NAME":"STARLINK-5670","OBJECT_ID":"2023-013L","EPOCH":"2026-01-22T04:48:24.654240","MEAN_MOTION":15.02514333,"ECCENTRICITY":0.00018841,"INCLINATION":43.003,"RA_OF_ASC_NODE":193.1644,"ARG_OF_PERICENTER":281.1116,"MEAN_ANOMALY":78.9514,"EPHEMERIS_TYPE":0,"CLASSIFICATION_TYPE":"U","NORAD_CAT_ID":55341,"ELEMENT_SET_NO":999,"REV_AT_EPOCH":16471,"BSTAR":6.021939e-5,"MEAN_MOTION_DOT":6.09e-6,"MEAN_MOTION_DDOT":0},{"OBJECT_NAME":"STARLINK-5657","OBJECT_ID":"2023-013M","EPOCH":"2026-01-22T04:40:25.708800","MEAN_MOTION":15.0252275,"ECCENTRICITY":0.00013575,"INCLINATION":43.0031,"RA_OF_ASC_NODE":193.1222,"ARG_OF_PERICENTER":267.9089,"MEAN_ANOMALY":92.1598,"EPHEMERIS_TYPE":0,"CLASSIFICATION_TYPE":"U","NORAD_CAT_ID":55342,"ELEMENT_SET_NO":999,"REV_AT_EPOCH":16471,"BSTAR":-0.00012060269,"MEAN_MOTION_DOT":-1.832e-5,"MEAN_MOTION_DDOT":0},{"OBJECT_NAME":"STARLINK-5661","OBJECT_ID":"2023-013N","EPOCH":"2026-01-22T04:32:25.429344","MEAN_MOTION":15.02524882,"ECCENTRICITY":8.013e-5,"INCLINATION":43.0022,"RA_OF_ASC_NODE":193.079,"ARG_OF_PERICENTER":267.8836,"MEAN_ANOMALY":92.1915,"EPHEMERIS_TYPE":0,"CLASSIFICATION_TYPE":"U","NORAD_CAT_ID":55343,"ELEMENT_SET_NO":999,"REV_AT_EPOCH":16471,"BSTAR":-0.00024572667,"MEAN_MOTION_DOT":-3.52e-5,"MEAN_MOTION_DDOT":0},{"OBJECT_NAME":"STARLINK-5653","OBJECT_ID":"2023-013Q","EPOCH":"2026-01-21T18:58:25.675680","MEAN_MOTION":15.02527307,"ECCENTRICITY":0.00010428,"INCLINATION":43.0007,"RA_OF_ASC_NODE":182.2226,"ARG_OF_PERICENTER":263.1032,"MEAN_ANOMALY":96.9692,"EPHEMERIS_TYPE":0,"CLASSIFICATION_TYPE":"U","NORAD_CAT_ID":55345,"ELEMENT_SET_NO":999,"REV_AT_EPOCH":16480,"BSTAR":4.903987e-6,"MEAN_MOTION_DOT":-1.37e-6,"MEAN_MOTION_DDOT":0},{"OBJECT_NAME":"STARLINK-5631","OBJECT_ID":"2023-013R","EPOCH":"2026-01-22T04:29:13.990272","MEAN_MOTION":15.02527681,"ECCENTRICITY":0.00011766,"INCLINATION":43.0016,"RA_OF_ASC_NODE":193.063,"ARG_OF_PERICENTER":270.8362,"MEAN_ANOMALY":89.2345,"EPHEMERIS_TYPE":0,"CLASSIFICATION_TYPE":"U","NORAD_CAT_ID":55346,"ELEMENT_SET_NO":999,"REV_AT_EPOCH":16471,"BSTAR":-6.5176213e-5,"MEAN_MOTION_DOT":-1.084e-5,"MEAN_MOTION_DDOT":0},{"OBJECT_NAME":"STARLINK-5663","OBJECT_ID":"2023-013S","EPOCH":"2026-01-22T04:11:39.211296","MEAN_MOTION":15.02517183,"ECCENTRICITY":0.00013948,"INCLINATION":43.0042,"RA_OF_ASC_NODE":192.9706,"ARG_OF_PERICENTER":265.5925,"MEAN_ANOMALY":94.4758,"EPHEMERIS_TYPE":0,"CLASSIFICATION_TYPE":"U","NORAD_CAT_ID":55347,"ELEMENT_SET_NO":999,"REV_AT_EPOCH":16471,"BSTAR":-0.00018165923,"MEAN_MOTION_DOT":-2.655e-5,"MEAN_MOTION_DDOT":0},{"OBJECT_NAME":"STARLINK-5609","OBJECT_ID":"2023-013T","EPOCH":"2026-01-22T04:24:25.616448","MEAN_MOTION":15.02538935,"ECCENTRICITY":0.0001462,"INCLINATION":43.0023,"RA_OF_ASC_NODE":193.0384,"ARG_OF_PERICENTER":277.6648,"MEAN_ANOMALY":82.4028,"EPHEMERIS_TYPE":0,"CLASSIFICATION_TYPE":"U","NORAD_CAT_ID":55348,"ELEMENT_SET_NO":999,"REV_AT_EPOCH":16471,"BSTAR":9.4545852e-5,"MEAN_MOTION_DOT":1.074e-5,"MEAN_MOTION_DDOT":0},{"OBJECT_NAME":"STARLINK-5666","OBJECT_ID":"2023-013U","EPOCH":"2026-01-22T04:19:38.614656","MEAN_MOTION":15.0252425,"ECCENTRICITY":0.00012246,"INCLINATION":43.0024,"RA_OF_ASC_NODE":193.0124,"ARG_OF_PERICENTER":265.1619,"MEAN_ANOMALY":94.9083,"EPHEMERIS_TYPE":0,"CLASSIFICATION_TYPE":"U","NORAD_CAT_ID":55349,"ELEMENT_SET_NO":999,"REV_AT_EPOCH":16471,"BSTAR":-0.00013284575,"MEAN_MOTION_DOT":-1.997e-5,"MEAN_MOTION_DDOT":0},{"OBJECT_NAME":"STARLINK-5668","OBJECT_ID":"2023-013V","EPOCH":"2026-01-22T04:14:50.432640","MEAN_MOTION":15.02541252,"ECCENTRICITY":0.00016477,"INCLINATION":43.0028,"RA_OF_ASC_NODE":192.9887,"ARG_OF_PERICENTER":267.5101,"MEAN_ANOMALY":92.5553,"EPHEMERIS_TYPE":0,"CLASSIFICATION_TYPE":"U","NORAD_CAT_ID":55350,"ELEMENT_SET_NO":999,"REV_AT_EPOCH":16471,"BSTAR":-0.00017683183,"MEAN_MOTION_DOT":-2.592e-5,"MEAN_MOTION_DDOT":0},{"OBJECT_NAME":"STARLINK-5659","OBJECT_ID":"2023-013W","EPOCH":"2026-01-22T03:58:51.981888","MEAN_MOTION":15.02531039,"ECCENTRICITY":0.00013228,"INCLINATION":43.0032,"RA_OF_ASC_NODE":192.9016,"ARG_OF_PERICENTER":272.1901,"MEAN_ANOMALY":87.879,"EPHEMERIS_TYPE":0,"CLASSIFICATION_TYPE":"U","NORAD_CAT_ID":55351,"ELEMENT_SET_NO":999,"REV_AT_EPOCH":16471,"BSTAR":-9.785854e-5,"MEAN_MOTION_DOT":-1.525e-5,"MEAN_MOTION_DDOT":0},{"OBJECT_NAME":"STARLINK-5547","OBJECT_ID":"2023-013X","EPOCH":"2026-01-21T18:32:28.993920","MEAN_MOTION":15.02533989,"ECCENTRICITY":9.379e-5,"INCLINATION":43.0028,"RA_OF_ASC_NODE":195.1138,"ARG_OF_PERICENTER":258.4248,"MEAN_ANOMALY":101.6489,"EPHEMERIS_TYPE":0,"CLASSIFICATION_TYPE":"U","NORAD_CAT_ID":55352,"ELEMENT_SET_NO":999,"REV_AT_EPOCH":16465,"BSTAR":-0.00015802409,"MEAN_MOTION_DOT":-2.337e-5,"MEAN_MOTION_DDOT":0}]
