STARLINK-5655           
1 55336U 23013F   26021.74073330 -.00000949  00000+0 -55222-4 0  9992
2 55336  43.0020 182.6334 0001128 274.4648  85.6065 15.02528149164791
STARLINK-5667           
1 55337U 23013G   26021.72075457 -.00003005  00000+0 -20751-3 0  9997
2 55337  43.0018 182.5319 0001251 266.2846  93.7853 15.02524097164790
STARLINK-5658           
1 55338U 23013H   26021.73827381 -.00001081  00000+0 -64979-4 0  9993
2 55338  43.0080 195.7163 0002860 266.4330  93.6186 15.02514363164647
STARLINK-5671           
1 55339U 23013J   26022.19806273 -.00000156  00000+0  35401-5 0  9992
2 55339  43.0014 193.1474 0001246 266.2702  93.7998 15.02533194164713
STARLINK-5675           
1 55340U 23013K   26022.18586475 -.00002451  00000+0 -16655-3 0  9991
2 55340  43.0018 193.0600 0001059 259.3681 100.7042 15.02518205164715
STARLINK-5670           
1 55341U 23013L   26022.20028535  .00000609  00000+0  60219-4 0  9990
2 55341  43.0030 193.1644 0001884 281.1116  78.9514 15.02514333164719
STARLINK-5657           
1 55342U 23013M   26022.19474200 -.00001832  00000+0 -12060-3 0  9994
2 55342  43.0031 193.1222 0001357 267.9089  92.1598 15.02522750164711
STARLINK-5661           
1 55343U 23013N   26022.18918321 -.00003520  00000+0 -24573-3 0  9999
2 55343  43.0022 193.0790 0000801 267.8836  92.1915 15.02524882164714
STARLINK-5653           
1 55345U 23013Q   26021.79057495 -.00000137  00000+0  49040-5 0  9991
2 55345  43.0007 182.2226 0001042 263.1032  96.9692 15.02527307164807
STARLINK-5631           
1 55346U 23013R   26022.18696748 -.00001084  00000+0 -65176-4 0  9996
2 55346  43.0016 193.0630 0001176 270.8362  89.2345 15.02527681164711
STARLINK-5663           
1 55347U 23013S   26022.17475939 -.00002655  00000+0 -18166-3 0  9994
2 55347  43.0042 192.9706 0001394 265.5925  94.4758 15.02517183164713
STARLINK-5609           
1 55348U 23013T   26022.18362982  .00001074  00000+0  94546-4 0  9998
2 55348  43.0023 193.0384 0001462 277.6648  82.4028 15.02538935164714
STARLINK-5666           
1 55349U 23013U   26022.18030804 -.00001997  00000+0 -13285-3 0  9990
2 55349  43.0024 193.0124 0001224 265.1619  94.9083 15.02524250164718
STARLINK-5668           
1 55350U 23013V   26022.17697260 -.00002592  00000+0 -17683-3 0  9994
2 55350  43.0028 192.9887 0001647 267.5101  92.5553 15.02541252164716
STARLINK-5659           
1 55351U 23013W   26022.16587942 -.00001525  00000+0 -97859-4 0  9998
2 55351  43.0032 192.9016 0001322 272.1901  87.8790 15.02531039164718
STARLINK-5547           
1 55352U 23013X   26021.77255780 -.00002337  00000+0 -15802-3 0  9996
2 55352  43.0028 195.1138 0000937 258.4248 101.6489 15.02533989164655
